start=new Date('2022-12-31T00:00:00.000Z').valueOf();
sats=[{"TLE_LINE1":"1 53183U 22083BD  22364.57393289  .00001751  00000-0  12808-3 0  9994","SITE":"AFETR","COUNTRY_CODE":"US","TLE_LINE2":"2 53183  53.2146 319.5245 0001915  44.9391 315.1756 15.08836108 26587","INCLINATION":"53.2146","CLASSIFICATION_TYPE":"U","EPOCH":"2022-12-30T13:46:27.801696","RCS_SIZE":"LARGE","MEAN_MOTION":"15.08836108","TIME_SYSTEM":"UTC","ELEMENT_SET_NO":"999","REV_AT_EPOCH":"2658","MEAN_ANOMALY":"315.1756","GP_ID":"221793121","OBJECT_ID":"2022-083BD","ECCENTRICITY":"0.00019150","SEMIMAJOR_AXIS":"6917.892","MEAN_ELEMENT_THEORY":"SGP4","BSTAR":"0.00012808000000","OBJECT_NAME":"STARLINK-4268","RA_OF_ASC_NODE":"319.5245","DECAY_DATE":null,"PERIAPSIS":"538.433","ARG_OF_PERICENTER":"44.9391","FILE":"3726963","EPHEMERIS_TYPE":"0","CENTER_NAME":"EARTH","MEAN_MOTION_DOT":"0.00001751","OBJECT_TYPE":"PAYLOAD","LAUNCH_DATE":"2022-07-17","NORAD_CAT_ID":"53183","MEAN_MOTION_DDOT":"0.0000000000000","PERIOD":"95.438","APOAPSIS":"541.082","REF_FRAME":"TEME"},{"REF_FRAME":"TEME","APOAPSIS":"540.981","PERIOD":"95.436","MEAN_MOTION_DDOT":"0.0000000000000","NORAD_CAT_ID":"53184","LAUNCH_DATE":"2022-07-17","MEAN_MOTION_DOT":"-0.00030492","OBJECT_TYPE":"PAYLOAD","CENTER_NAME":"EARTH","EPHEMERIS_TYPE":"0","PERIAPSIS":"538.334","ARG_OF_PERICENTER":"45.8121","FILE":"3726810","DECAY_DATE":null,"RA_OF_ASC_NODE":"314.0629","BSTAR":"-0.00190430000000","OBJECT_NAME":"STARLINK-4257","MEAN_ELEMENT_THEORY":"SGP4","ECCENTRICITY":"0.00019130","SEMIMAJOR_AXIS":"6917.792","GP_ID":"221790869","OBJECT_ID":"2022-083BE","MEAN_ANOMALY":"358.3885","REV_AT_EPOCH":"130","ELEMENT_SET_NO":"999","TIME_SYSTEM":"UTC","MEAN_MOTION":"15.08868846","EPOCH":"2022-12-30T14:00:01.000224","RCS_SIZE":"LARGE","CLASSIFICATION_TYPE":"U","TLE_LINE2":"2 53184  53.2153 314.0629 0001913  45.8121 358.3885 15.08868846  1300","INCLINATION":"53.2153","COUNTRY_CODE":"US","TLE_LINE1":"1 53184U 22083BE  22364.58334491 -.00030492  00000-0 -19043-2 0  9999","SITE":"AFETR"},{"NORAD_CAT_ID":"53189","LAUNCH_DATE":"2022-07-22","REF_FRAME":"TEME","APOAPSIS":"564.548","PERIOD":"95.919","MEAN_MOTION_DDOT":"0.0000000000000","FILE":"3726994","ARG_OF_PERICENTER":"49.6032","PERIAPSIS":"561.428","DECAY_DATE":null,"RA_OF_ASC_NODE":"63.1832","OBJECT_NAME":"STARLINK-4391","BSTAR":"0.00051794000000","OBJECT_TYPE":"PAYLOAD","MEAN_MOTION_DOT":"0.00006601","CENTER_NAME":"EARTH","EPHEMERIS_TYPE":"0","REV_AT_EPOCH":"2491","MEAN_ANOMALY":"310.5388","ELEMENT_SET_NO":"999","MEAN_ELEMENT_THEORY":"SGP4","SEMIMAJOR_AXIS":"6941.123","ECCENTRICITY":"0.00022470","OBJECT_ID":"2022-084A","GP_ID":"221793900","INCLINATION":"97.6539","TLE_LINE2":"2 53189  97.6539  63.1832 0002247  49.6032 310.5388 15.01267774 24913","COUNTRY_CODE":"US","SITE":"AFWTR","TLE_LINE1":"1 53189U 22084A   22364.69759278  .00006601  00000-0  51794-3 0  9994","TIME_SYSTEM":"UTC","MEAN_MOTION":"15.01267774","RCS_SIZE":"LARGE","EPOCH":"2022-12-30T16:44:32.016192","CLASSIFICATION_TYPE":"U"},{"LAUNCH_DATE":"2022-07-22","NORAD_CAT_ID":"53190","PERIOD":"95.920","MEAN_MOTION_DDOT":"0.0000000000000","REF_FRAME":"TEME","APOAPSIS":"564.091","RA_OF_ASC_NODE":"62.6635","OBJECT_NAME":"STARLINK-4332","BSTAR":"-0.00005111700000","FILE":"3726354","ARG_OF_PERICENTER":"59.0892","PERIAPSIS":"561.950","DECAY_DATE":null,"EPHEMERIS_TYPE":"0","OBJECT_TYPE":"PAYLOAD","MEAN_MOTION_DOT":"-0.00000715","CENTER_NAME":"EARTH","ELEMENT_SET_NO":"999","MEAN_ANOMALY":"301.0484","REV_AT_EPOCH":"2483","OBJECT_ID":"2022-084B","GP_ID":"221754169","MEAN_ELEMENT_THEORY":"SGP4","SEMIMAJOR_AXIS":"6941.155","ECCENTRICITY":"0.00015420","COUNTRY_CODE":"US","TLE_LINE1":"1 53190U 22084B   22364.19424860 -.00000715  00000-0 -51117-4 0  9999","SITE":"AFWTR","INCLINATION":"97.6598","TLE_LINE2":"2 53190  97.6598  62.6635 0001542  59.0892 301.0484 15.01257230 24830","RCS_SIZE":"LARGE","EPOCH":"2022-12-30T04:39:43.079040","CLASSIFICATION_TYPE":"U","TIME_SYSTEM":"UTC","MEAN_MOTION":"15.01257230"},{"MEAN_ANOMALY":"303.3429","REV_AT_EPOCH":"2490","ELEMENT_SET_NO":"999","SEMIMAJOR_AXIS":"6941.146","ECCENTRICITY":"0.00017290","MEAN_ELEMENT_THEORY":"SGP4","OBJECT_ID":"2022-084C","GP_ID":"221793914","INCLINATION":"97.6567","TLE_LINE2":"2 53191  97.6567  63.1535 0001729  56.7960 303.3429 15.01260297 24908","TLE_LINE1":"1 53191U 22084C   22364.69203863  .00002482  00000-0  19778-3 0  9990","SITE":"AFWTR","COUNTRY_CODE":"US","MEAN_MOTION":"15.01260297","TIME_SYSTEM":"UTC","CLASSIFICATION_TYPE":"U","RCS_SIZE":"LARGE","EPOCH":"2022-12-30T16:36:32.137632","NORAD_CAT_ID":"53191","LAUNCH_DATE":"2022-07-22","APOAPSIS":"564.211","REF_FRAME":"TEME","MEAN_MOTION_DDOT":"0.0000000000000","PERIOD":"95.919","DECAY_DATE":null,"FILE":"3726993","PERIAPSIS":"561.811","ARG_OF_PERICENTER":"56.7960","OBJECT_NAME":"STARLINK-4369","BSTAR":"0.00019778000000","RA_OF_ASC_NODE":"63.1535","CENTER_NAME":"EARTH","OBJECT_TYPE":"PAYLOAD","MEAN_MOTION_DOT":"0.00002482","EPHEMERIS_TYPE":"0"},{"OBJECT_ID":"2022-084D","GP_ID":"221794057","SEMIMAJOR_AXIS":"6941.164","ECCENTRICITY":"0.00015710","MEAN_ELEMENT_THEORY":"SGP4","ELEMENT_SET_NO":"999","REV_AT_EPOCH":"2490","MEAN_ANOMALY":"278.0456","CLASSIFICATION_TYPE":"U","RCS_SIZE":"LARGE","EPOCH":"2022-12-30T16:33:52.689888","MEAN_MOTION":"15.01254517","TIME_SYSTEM":"UTC","SITE":"AFWTR","TLE_LINE1":"1 53192U 22084D   22364.69019317  .00002498  00000-0  19904-3 0  9998","COUNTRY_CODE":"US","INCLINATION":"97.6564","TLE_LINE2":"2 53192  97.6564  63.1498 0001571  82.0946 278.0456 15.01254517 24901","MEAN_MOTION_DDOT":"0.0000000000000","PERIOD":"95.920","APOAPSIS":"564.119","REF_FRAME":"TEME","LAUNCH_DATE":"2022-07-22","NORAD_CAT_ID":"53192","EPHEMERIS_TYPE":"0","CENTER_NAME":"EARTH","OBJECT_TYPE":"PAYLOAD","MEAN_MOTION_DOT":"0.00002498","OBJECT_NAME":"STARLINK-4375","BSTAR":"0.00019904000000","RA_OF_ASC_NODE":"63.1498","DECAY_DATE":null,"FILE":"3726993","PERIAPSIS":"561.938","ARG_OF_PERICENTER":"82.0946"},{"OBJECT_TYPE":"PAYLOAD","MEAN_MOTION_DOT":"0.00002778","CENTER_NAME":"EARTH","EPHEMERIS_TYPE":"0","FILE":"3726993","PERIAPSIS":"561.900","ARG_OF_PERICENTER":"78.1937","DECAY_DATE":null,"RA_OF_ASC_NODE":"63.1631","OBJECT_NAME":"STARLINK-4351","BSTAR":"0.00022083000000","REF_FRAME":"TEME","APOAPSIS":"564.144","PERIOD":"95.920","MEAN_MOTION_DDOT":"0.0000000000000","NORAD_CAT_ID":"53193","LAUNCH_DATE":"2022-07-22","TIME_SYSTEM":"UTC","MEAN_MOTION":"15.01256741","RCS_SIZE":"LARGE","EPOCH":"2022-12-30T16:41:52.480320","CLASSIFICATION_TYPE":"U","INCLINATION":"97.6550","TLE_LINE2":"2 53193  97.6550  63.1631 0001616  78.1937 281.9468 15.01256741 24910","COUNTRY_CODE":"US","TLE_LINE1":"1 53193U 22084E   22364.69574630  .00002778  00000-0  22083-3 0  9996","SITE":"AFWTR","MEAN_ELEMENT_THEORY":"SGP4","SEMIMAJOR_AXIS":"6941.157","ECCENTRICITY":"0.00016160","OBJECT_ID":"2022-084E","GP_ID":"221793915","MEAN_ANOMALY":"281.9468","REV_AT_EPOCH":"2491","ELEMENT_SET_NO":"999"},{"TLE_LINE2":"2 53194  97.6557  62.8956 0001977  57.0642 303.0772 15.01251736 24488","INCLINATION":"97.6557","COUNTRY_CODE":"US","TLE_LINE1":"1 53194U 22084F   22364.42729416  .00000228  00000-0  22352-4 0  9990","SITE":"AFWTR","TIME_SYSTEM":"UTC","MEAN_MOTION":"15.01251736","EPOCH":"2022-12-30T10:15:18.215424","RCS_SIZE":"LARGE","CLASSIFICATION_TYPE":"U","MEAN_ANOMALY":"303.0772","REV_AT_EPOCH":"2448","ELEMENT_SET_NO":"999","MEAN_ELEMENT_THEORY":"SGP4","ECCENTRICITY":"0.00019770","SEMIMAJOR_AXIS":"6941.172","GP_ID":"221790033","OBJECT_ID":"2022-084F","PERIAPSIS":"561.665","ARG_OF_PERICENTER":"57.0642","FILE":"3726810","DECAY_DATE":null,"RA_OF_ASC_NODE":"62.8956","BSTAR":"0.00002235200000","OBJECT_NAME":"STARLINK-4382","MEAN_MOTION_DOT":"0.00000228","OBJECT_TYPE":"PAYLOAD","CENTER_NAME":"EARTH","EPHEMERIS_TYPE":"0","NORAD_CAT_ID":"53194","LAUNCH_DATE":"2022-07-22","REF_FRAME":"TEME","APOAPSIS":"564.410","PERIOD":"95.920","MEAN_MOTION_DDOT":"0.0000000000000"},{"MEAN_MOTION":"15.00433731","TIME_SYSTEM":"UTC","CLASSIFICATION_TYPE":"U","EPOCH":"2022-12-30T09:45:36.514368","RCS_SIZE":"LARGE","TLE_LINE2":"2 53195  97.6527  62.9271 0000544 150.3538 209.7716 15.00433731 25158","INCLINATION":"97.6527","TLE_LINE1":"1 53195U 22084G   22364.40667262  .00004999  00000-0  40207-3 0  9996","SITE":"AFWTR","COUNTRY_CODE":"US","ECCENTRICITY":"0.00005440","SEMIMAJOR_AXIS":"6943.695","MEAN_ELEMENT_THEORY":"SGP4","GP_ID":"221790661","OBJECT_ID":"2022-084G","MEAN_ANOMALY":"209.7716","REV_AT_EPOCH":"2515","ELEMENT_SET_NO":"999","CENTER_NAME":"EARTH","MEAN_MOTION_DOT":"0.00004999","OBJECT_TYPE":"PAYLOAD","EPHEMERIS_TYPE":"0","DECAY_DATE":null,"ARG_OF_PERICENTER":"150.3538","PERIAPSIS":"565.182","FILE":"3726810","BSTAR":"0.00040207000000","OBJECT_NAME":"STARLINK-4404","RA_OF_ASC_NODE":"62.9271","APOAPSIS":"565.938","REF_FRAME":"TEME","MEAN_MOTION_DDOT":"0.0000000000000","PERIOD":"95.972","NORAD_CAT_ID":"53195","LAUNCH_DATE":"2022-07-22"},{"CENTER_NAME":"EARTH","MEAN_MOTION_DOT":"0.00000050","OBJECT_TYPE":"PAYLOAD","EPHEMERIS_TYPE":"0","DECAY_DATE":null,"PERIAPSIS":"561.887","ARG_OF_PERICENTER":"74.9328","FILE":"3726810","BSTAR":"0.00000845210000","OBJECT_NAME":"STARLINK-4407","RA_OF_ASC_NODE":"62.8885","APOAPSIS":"564.140","REF_FRAME":"TEME","MEAN_MOTION_DDOT":"0.0000000000000","PERIOD":"95.919","NORAD_CAT_ID":"53196","LAUNCH_DATE":"2022-07-22","MEAN_MOTION":"15.01259560","TIME_SYSTEM":"UTC","CLASSIFICATION_TYPE":"U","EPOCH":"2022-12-30T10:10:18.327936","RCS_SIZE":"MEDIUM","TLE_LINE2":"2 53196  97.6552  62.8885 0001623  74.9328 285.2075 15.01259560 25147","INCLINATION":"97.6552","SITE":"AFWTR","TLE_LINE1":"1 53196U 22084H   22364.42382324  .00000050  00000-0  84521-5 0  9995","COUNTRY_CODE":"US","ECCENTRICITY":"0.00016230","SEMIMAJOR_AXIS":"6941.148","MEAN_ELEMENT_THEORY":"SGP4","GP_ID":"221790870","OBJECT_ID":"2022-084H","MEAN_ANOMALY":"285.2075","REV_AT_EPOCH":"2514","ELEMENT_SET_NO":"999"}];
